ORBCOMM FM33            
1 25983U 99065D   24221.85821642  .00003007  00000+0  10295-2 0  9991
2 25983  45.0294  41.9186 0008200 283.3029  76.6905 14.38064609291072
ORBCOMM FM36            
1 25984U 99065E   24221.89050258  .00003667  00000+0  12985-2 0  9993
2 25984  45.0390 128.7997 0002370 159.4960 200.5984 14.35992168289498
ORBCOMM FM35            
1 25985U 99065F   24221.89277603  .00002473  00000+0  90137-3 0  9999
2 25985  45.0390 131.7674 0003587 291.1126  68.9338 14.35456875289886
ORBCOMM FM34            
1 25986U 99065G   24221.86484524  .00003039  00000+0  10964-2 0  9997
2 25986  45.0385 132.4482 0002865 231.7162 128.3428 14.35441836289998
ORBCOMM FM38            
1 33060U 08031A   24221.82777835  .00005726  00000+0  80991-3 0  9991
2 33060  48.4424   0.7154 0005078 150.4718 209.6484 14.78164021868484
ORBCOMM FM41            
1 33061U 08031B   24221.91689972  .00005896  00000+0  83849-3 0  9999
2 33061  48.4456   7.1288 0004096 136.8493   4.8274 14.77885180867998
ORBCOMM FM29            
1 33062U 08031C   24221.83534904  .00005817  00000+0  82857-3 0  9996
2 33062  48.4409  15.5483 0005961 131.8375 339.3530 14.77839052867890
ORBCOMM FM39            
1 33063U 08031D   24221.91119825  .00004912  00000+0  72214-3 0  9998
2 33063  48.4414  36.4163 0006763 103.2938 256.8730 14.76757170867594
