<?xml version="1.0" encoding="UTF-8"?>
<ndm xmlns:xsi="http://www.w3.org/2001/XMLSchema-instance" xsi:noNamespaceSchemaLocation="https://sanaregistry.org/r/ndmxml_unqualified/ndmxml-2.0.0-master-2.0.xsd">
<omm id="CCSDS_OMM_VERS" version="2.0">
<header><CREATION_DATE/><ORIGINATOR/></header><body><segment><metadata><OBJECT_NAME>ORBCOMM FM33</OBJECT_NAME><OBJECT_ID>1999-065D</OBJECT_ID><CENTER_NAME>EARTH</CENTER_NAME><REF_FRAME>TEME</REF_FRAME><TIME_SYSTEM>UTC</TIME_SYSTEM><MEAN_ELEMENT_THEORY>SGP4</MEAN_ELEMENT_THEORY></metadata><data><meanElements><EPOCH>2024-08-08T20:35:49.898688</EPOCH><MEAN_MOTION>14.38064609</MEAN_MOTION><ECCENTRICITY>.00082</ECCENTRICITY><INCLINATION>45.0294</INCLINATION><RA_OF_ASC_NODE>41.9186</RA_OF_ASC_NODE><ARG_OF_PERICENTER>283.3029</ARG_OF_PERICENTER><MEAN_ANOMALY>76.6905</MEAN_ANOMALY></meanElements><tleParameters><EPHEMERIS_TYPE>0</EPHEMERIS_TYPE><CLASSIFICATION_TYPE>U</CLASSIFICATION_TYPE><NORAD_CAT_ID>25983</NORAD_CAT_ID><ELEMENT_SET_NO>999</ELEMENT_SET_NO><REV_AT_EPOCH>29107</REV_AT_EPOCH><BSTAR>.10295E-2</BSTAR><MEAN_MOTION_DOT>.3007E-4</MEAN_MOTION_DOT><MEAN_MOTION_DDOT>0</MEAN_MOTION_DDOT></tleParameters></data></segment></body></omm>
<omm id="CCSDS_OMM_VERS" version="2.0">
<header><CREATION_DATE/><ORIGINATOR/></header><body><segment><metadata><OBJECT_NAME>ORBCOMM FM36</OBJECT_NAME><OBJECT_ID>1999-065E</OBJECT_ID><CENTER_NAME>EARTH</CENTER_NAME><REF_FRAME>TEME</REF_FRAME><TIME_SYSTEM>UTC</TIME_SYSTEM><MEAN_ELEMENT_THEORY>SGP4</MEAN_ELEMENT_THEORY></metadata><data><meanElements><EPOCH>2024-08-08T21:22:19.422912</EPOCH><MEAN_MOTION>14.35992168</MEAN_MOTION><ECCENTRICITY>.000237</ECCENTRICITY><INCLINATION>45.0390</INCLINATION><RA_OF_ASC_NODE>128.7997</RA_OF_ASC_NODE><ARG_OF_PERICENTER>159.4960</ARG_OF_PERICENTER><MEAN_ANOMALY>200.5984</MEAN_ANOMALY></meanElements><tleParameters><EPHEMERIS_TYPE>0</EPHEMERIS_TYPE><CLASSIFICATION_TYPE>U</CLASSIFICATION_TYPE><NORAD_CAT_ID>25984</NORAD_CAT_ID><ELEMENT_SET_NO>999</ELEMENT_SET_NO><REV_AT_EPOCH>28949</REV_AT_EPOCH><BSTAR>.12985E-2</BSTAR><MEAN_MOTION_DOT>.3667E-4</MEAN_MOTION_DOT><MEAN_MOTION_DDOT>0</MEAN_MOTION_DDOT></tleParameters></data></segment></body></omm>
<omm id="CCSDS_OMM_VERS" version="2.0">
<header><CREATION_DATE/><ORIGINATOR/></header><body><segment><metadata><OBJECT_NAME>ORBCOMM FM35</OBJECT_NAME><OBJECT_ID>1999-065F</OBJECT_ID><CENTER_NAME>EARTH</CENTER_NAME><REF_FRAME>TEME</REF_FRAME><TIME_SYSTEM>UTC</TIME_SYSTEM><MEAN_ELEMENT_THEORY>SGP4</MEAN_ELEMENT_THEORY></metadata><data><meanElements><EPOCH>2024-08-08T21:25:35.848992</EPOCH><MEAN_MOTION>14.35456875</MEAN_MOTION><ECCENTRICITY>.0003587</ECCENTRICITY><INCLINATION>45.0390</INCLINATION><RA_OF_ASC_NODE>131.7674</RA_OF_ASC_NODE><ARG_OF_PERICENTER>291.1126</ARG_OF_PERICENTER><MEAN_ANOMALY>68.9338</MEAN_ANOMALY></meanElements><tleParameters><EPHEMERIS_TYPE>0</EPHEMERIS_TYPE><CLASSIFICATION_TYPE>U</CLASSIFICATION_TYPE><NORAD_CAT_ID>25985</NORAD_CAT_ID><ELEMENT_SET_NO>999</ELEMENT_SET_NO><REV_AT_EPOCH>28988</REV_AT_EPOCH><BSTAR>.90137E-3</BSTAR><MEAN_MOTION_DOT>.2473E-4</MEAN_MOTION_DOT><MEAN_MOTION_DDOT>0</MEAN_MOTION_DDOT></tleParameters></data></segment></body></omm>
<omm id="CCSDS_OMM_VERS" version="2.0">
<header><CREATION_DATE/><ORIGINATOR/></header><body><segment><metadata><OBJECT_NAME>ORBCOMM FM34</OBJECT_NAME><OBJECT_ID>1999-065G</OBJECT_ID><CENTER_NAME>EARTH</CENTER_NAME><REF_FRAME>TEME</REF_FRAME><TIME_SYSTEM>UTC</TIME_SYSTEM><MEAN_ELEMENT_THEORY>SGP4</MEAN_ELEMENT_THEORY></metadata><data><meanElements><EPOCH>2024-08-08T20:45:22.628736</EPOCH><MEAN_MOTION>14.35441836</MEAN_MOTION><ECCENTRICITY>.0002865</ECCENTRICITY><INCLINATION>45.0385</INCLINATION><RA_OF_ASC_NODE>132.4482</RA_OF_ASC_NODE><ARG_OF_PERICENTER>231.7162</ARG_OF_PERICENTER><MEAN_ANOMALY>128.3428</MEAN_ANOMALY></meanElements><tleParameters><EPHEMERIS_TYPE>0</EPHEMERIS_TYPE><CLASSIFICATION_TYPE>U</CLASSIFICATION_TYPE><NORAD_CAT_ID>25986</NORAD_CAT_ID><ELEMENT_SET_NO>999</ELEMENT_SET_NO><REV_AT_EPOCH>28999</REV_AT_EPOCH><BSTAR>.10964E-2</BSTAR><MEAN_MOTION_DOT>.3039E-4</MEAN_MOTION_DOT><MEAN_MOTION_DDOT>0</MEAN_MOTION_DDOT></tleParameters></data></segment></body></omm>
<omm id="CCSDS_OMM_VERS" version="2.0">
<header><CREATION_DATE/><ORIGINATOR/></header><body><segment><metadata><OBJECT_NAME>ORBCOMM FM38</OBJECT_NAME><OBJECT_ID>2008-031A</OBJECT_ID><CENTER_NAME>EARTH</CENTER_NAME><REF_FRAME>TEME</REF_FRAME><TIME_SYSTEM>UTC</TIME_SYSTEM><MEAN_ELEMENT_THEORY>SGP4</MEAN_ELEMENT_THEORY></metadata><data><meanElements><EPOCH>2024-08-08T19:52:00.049440</EPOCH><MEAN_MOTION>14.78164021</MEAN_MOTION><ECCENTRICITY>.0005078</ECCENTRICITY><INCLINATION>48.4424</INCLINATION><RA_OF_ASC_NODE>0.7154</RA_OF_ASC_NODE><ARG_OF_PERICENTER>150.4718</ARG_OF_PERICENTER><MEAN_ANOMALY>209.6484</MEAN_ANOMALY></meanElements><tleParameters><EPHEMERIS_TYPE>0</EPHEMERIS_TYPE><CLASSIFICATION_TYPE>U</CLASSIFICATION_TYPE><NORAD_CAT_ID>33060</NORAD_CAT_ID><ELEMENT_SET_NO>999</ELEMENT_SET_NO><REV_AT_EPOCH>86848</REV_AT_EPOCH><BSTAR>.80991E-3</BSTAR><MEAN_MOTION_DOT>.5726E-4</MEAN_MOTION_DOT><MEAN_MOTION_DDOT>0</MEAN_MOTION_DDOT></tleParameters></data></segment></body></omm>
<omm id="CCSDS_OMM_VERS" version="2.0">
<header><CREATION_DATE/><ORIGINATOR/></header><body><segment><metadata><OBJECT_NAME>ORBCOMM FM41</OBJECT_NAME><OBJECT_ID>2008-031B</OBJECT_ID><CENTER_NAME>EARTH</CENTER_NAME><REF_FRAME>TEME</REF_FRAME><TIME_SYSTEM>UTC</TIME_SYSTEM><MEAN_ELEMENT_THEORY>SGP4</MEAN_ELEMENT_THEORY></metadata><data><meanElements><EPOCH>2024-08-08T22:00:20.135808</EPOCH><MEAN_MOTION>14.77885180</MEAN_MOTION><ECCENTRICITY>.0004096</ECCENTRICITY><INCLINATION>48.4456</INCLINATION><RA_OF_ASC_NODE>7.1288</RA_OF_ASC_NODE><ARG_OF_PERICENTER>136.8493</ARG_OF_PERICENTER><MEAN_ANOMALY>4.8274</MEAN_ANOMALY></meanElements><tleParameters><EPHEMERIS_TYPE>0</EPHEMERIS_TYPE><CLASSIFICATION_TYPE>U</CLASSIFICATION_TYPE><NORAD_CAT_ID>33061</NORAD_CAT_ID><ELEMENT_SET_NO>999</ELEMENT_SET_NO><REV_AT_EPOCH>86799</REV_AT_EPOCH><BSTAR>.83849E-3</BSTAR><MEAN_MOTION_DOT>.5896E-4</MEAN_MOTION_DOT><MEAN_MOTION_DDOT>0</MEAN_MOTION_DDOT></tleParameters></data></segment></body></omm>
<omm id="CCSDS_OMM_VERS" version="2.0">
<header><CREATION_DATE/><ORIGINATOR/></header><body><segment><metadata><OBJECT_NAME>ORBCOMM FM29</OBJECT_NAME><OBJECT_ID>2008-031C</OBJECT_ID><CENTER_NAME>EARTH</CENTER_NAME><REF_FRAME>TEME</REF_FRAME><TIME_SYSTEM>UTC</TIME_SYSTEM><MEAN_ELEMENT_THEORY>SGP4</MEAN_ELEMENT_THEORY></metadata><data><meanElements><EPOCH>2024-08-08T20:02:54.157056</EPOCH><MEAN_MOTION>14.77839052</MEAN_MOTION><ECCENTRICITY>.0005961</ECCENTRICITY><INCLINATION>48.4409</INCLINATION><RA_OF_ASC_NODE>15.5483</RA_OF_ASC_NODE><ARG_OF_PERICENTER>131.8375</ARG_OF_PERICENTER><MEAN_ANOMALY>339.3530</MEAN_ANOMALY></meanElements><tleParameters><EPHEMERIS_TYPE>0</EPHEMERIS_TYPE><CLASSIFICATION_TYPE>U</CLASSIFICATION_TYPE><NORAD_CAT_ID>33062</NORAD_CAT_ID><ELEMENT_SET_NO>999</ELEMENT_SET_NO><REV_AT_EPOCH>86789</REV_AT_EPOCH><BSTAR>.82857E-3</BSTAR><MEAN_MOTION_DOT>.5817E-4</MEAN_MOTION_DOT><MEAN_MOTION_DDOT>0</MEAN_MOTION_DDOT></tleParameters></data></segment></body></omm>
<omm id="CCSDS_OMM_VERS" version="2.0">
<header><CREATION_DATE/><ORIGINATOR/></header><body><segment><metadata><OBJECT_NAME>ORBCOMM FM39</OBJECT_NAME><OBJECT_ID>2008-031D</OBJECT_ID><CENTER_NAME>EARTH</CENTER_NAME><REF_FRAME>TEME</REF_FRAME><TIME_SYSTEM>UTC</TIME_SYSTEM><MEAN_ELEMENT_THEORY>SGP4</MEAN_ELEMENT_THEORY></metadata><data><meanElements><EPOCH>2024-08-08T21:52:07.528800</EPOCH><MEAN_MOTION>14.76757170</MEAN_MOTION><ECCENTRICITY>.0006763</ECCENTRICITY><INCLINATION>48.4414</INCLINATION><RA_OF_ASC_NODE>36.4163</RA_OF_ASC_NODE><ARG_OF_PERICENTER>103.2938</ARG_OF_PERICENTER><MEAN_ANOMALY>256.8730</MEAN_ANOMALY></meanElements><tleParameters><EPHEMERIS_TYPE>0</EPHEMERIS_TYPE><CLASSIFICATION_TYPE>U</CLASSIFICATION_TYPE><NORAD_CAT_ID>33063</NORAD_CAT_ID><ELEMENT_SET_NO>999</ELEMENT_SET_NO><REV_AT_EPOCH>86759</REV_AT_EPOCH><BSTAR>.72214E-3</BSTAR><MEAN_MOTION_DOT>.4912E-4</MEAN_MOTION_DOT><MEAN_MOTION_DDOT>0</MEAN_MOTION_DDOT></tleParameters></data></segment></body></omm>

</ndm>
